{
  "type": "Feature",
  "properties": {
    "name": "Downtown Atlanta to Airport",
    "distance_miles": 10,
    "city": "Atlanta, GA"
  },
  "geometry": {
    "type": "LineString",
    "coordinates": [
      [
        -84.388,
        33.749
      ],
      [
        -84.385,
        33.747
      ],
      [
        -84.382,
        33.745
      ],
      [
        -84.38,
        33.74
      ],
      [
        -84.375,
        33.73
      ],
      [
        -84.37,
        33.72
      ],
      [
        -84.365,
        33.71
      ],
      [
        -84.36,
        33.7
      ],
      [
        -84.355,
        33.69
      ],
      [
        -84.35,
        33.68
      ],
      [
        -84.388,
        33.749
      ]
    ]
  }
}